NORAD_CAT_ID,OBJECT_NAME,OBJECT_TYPE,EPOCH,MEAN_MOTION,ECCENTRICITY,INCLINATION,RA_OF_ASC_NODE,ARG_OF_PERICENTER,MEAN_ANOMALY,BSTAR,MEAN_MOTION_DOT,MEAN_MOTION_DDOT,TLE_LINE0,TLE_LINE1,TLE_LINE2,SEMIMAJOR_AXIS,PERIOD,APOGEE,PERIGEE,DECAYED
51748.0,STARLINK-3501,PAYLOAD,2024-06-21 14:34:12,15.08836436,0.0001354,53.2172,239.7162,92.6367,267.478,3.8544e-05,3.26e-06,0.0,0 STARLINK-3501,1 51748U 22016AL  24173.60709357  .00000326  00000-0  38544-4 0  9999,2 51748  53.2172 239.7162 0001354  92.6367 267.4780 15.08836436129182,6917.891,95.438,540.693,538.82,0.0
51748.0,STARLINK-3501,PAYLOAD,2024-06-22 09:38:50,15.0883635,0.0001364,53.2168,236.1459,97.1439,262.9708,1.2008e-05,-9.7e-07,0.0,0 STARLINK-3501,1 51748U 22016AL  24174.40197542 -.00000097  00000-0  12008-4 0  9998,2 51748  53.2168 236.1459 0001364  97.1439 262.9708 15.08836350130376,6917.892,95.438,540.7,538.813,0.0
51748.0,STARLINK-3501,PAYLOAD,2024-06-23 11:05:00,15.0884143,0.0001295,53.2166,231.3904,93.9577,266.1563,0.00012554,1.711e-05,0.0,0 STARLINK-3501,1 51748U 22016AL  24175.46181156  .00001711  00000-0  12554-3 0  9997,2 51748  53.2166 231.3904 0001295  93.9577 266.1563 15.08841430130534,6917.876,95.437,540.637,538.845,0.0
51748.0,STARLINK-3501,PAYLOAD,2024-06-24 10:55:47,15.08841891,0.0001263,53.2163,226.9304,89.9684,270.1453,0.00010628,1.404e-05,0.0,0 STARLINK-3501,1 51748U 22016AL  24176.45541228  .00001404  00000-0  10628-3 0  9996,2 51748  53.2163 226.9304 0001263  89.9684 270.1453 15.08841891129615,6917.875,95.437,540.613,538.866,0.0
51748.0,STARLINK-3501,PAYLOAD,2024-06-25 10:46:35,15.08839137,0.0001379,53.2164,222.4703,77.9577,282.157,-5.5356e-06,-3.76e-06,0.0,0 STARLINK-3501,1 51748U 22016AL  24177.44901837 -.00000376  00000-0 -55356-5 0  9990,2 51748  53.2164 222.4703 0001379  77.9577 282.1570 15.08839137130835,6917.883,95.438,540.702,538.794,0.0
51748.0,STARLINK-3501,PAYLOAD,2024-06-26 09:01:58,15.08845405,0.00016,53.2161,218.3083,65.4137,294.7022,0.0001051,1.385e-05,0.0,0 STARLINK-3501,1 51748U 22016AL  24178.37637090  .00001385  00000-0  10510-3 0  9990,2 51748  53.2161 218.3083 0001600  65.4137 294.7022 15.08845405130979,6917.864,95.437,540.836,538.622,0.0
51748.0,STARLINK-3501,PAYLOAD,2024-06-27 08:52:45,15.08840793,0.0001235,53.2148,213.8468,81.7127,278.4005,5.376e-05,5.68e-06,0.0,0 STARLINK-3501,1 51748U 22016AL  24179.36997388  .00000568  00000-0  53760-4 0  9996,2 51748  53.2148 213.8468 0001235  81.7127 278.4005 15.08840793131128,6917.878,95.438,540.597,538.889,0.0
51748.0,STARLINK-3501,PAYLOAD,2024-06-28 08:43:32,15.08842878,0.0001124,53.2136,209.3846,89.8528,270.2593,1.1702e-05,-1.02e-06,0.0,0 STARLINK-3501,1 51748U 22016AL  24180.36357244 -.00000102  00000-0  11702-4 0  9994,2 51748  53.2136 209.3846 0001124  89.8528 270.2593 15.08842878130202,6917.872,95.437,540.514,538.959,0.0
51748.0,STARLINK-3501,PAYLOAD,2024-06-29 08:34:19,15.08844816,0.0001295,53.215,204.9262,91.6433,268.4708,0.00010362,1.362e-05,0.0,0 STARLINK-3501,1 51748U 22016AL  24181.35716857  .00001362  00000-0  10362-3 0  9991,2 51748  53.2150 204.9262 0001295  91.6433 268.4708 15.08844816131422,6917.866,95.437,540.627,538.835,0.0
51748.0,STARLINK-3501,PAYLOAD,2024-06-30 05:14:21,15.08831729,0.0001309,53.2141,201.0558,94.1279,265.9862,-2.5211e-05,-6.89e-06,0.0,0 STARLINK-3501,1 51748U 22016AL  24182.21830276 -.00000689  00000-0 -25211-4 0  9992,2 51748  53.2141 201.0558 0001309  94.1279 265.9862 15.08831729131556,6917.906,95.438,540.676,538.865,0.0
51748.0,STARLINK-3501,PAYLOAD,2024-06-30 08:25:07,15.0882867,0.0001385,53.2152,200.4645,91.1822,268.9328,-4.9652e-05,-1.078e-05,0.0,0 STARLINK-3501,1 51748U 22016AL  24182.35078639 -.00001078  00000-0 -49652-4 0  9992,2 51748  53.2152 200.4645 0001385  91.1822 268.9328 15.08828670130508,6917.915,95.438,540.738,538.822,0.0
51748.0,STARLINK-3501,PAYLOAD,2024-06-30 17:57:26,15.0883025,0.0001376,53.2154,198.6805,90.4778,269.6372,-3.8591e-05,-9.02e-06,0.0,0 STARLINK-3501,1 51748U 22016AL  24182.74822724 -.00000902  00000-0 -38591-4 0  9992,2 51748  53.2154 198.6805 0001376  90.4778 269.6372 15.08830250130568,6917.91,95.438,540.727,538.823,0.0
51748.0,STARLINK-3501,PAYLOAD,2024-07-01 08:15:55,15.08832433,0.0001298,53.2149,196.0031,84.6923,275.4217,2.259e-05,7.2e-07,0.0,0 STARLINK-3501,1 51748U 22016AL  24183.34438690  .00000072  00000-0  22590-4 0  9992,2 51748  53.2149 196.0031 0001298  84.6923 275.4217 15.08832433131722,6917.904,95.438,540.666,538.871,0.0
51748.0,STARLINK-3501,PAYLOAD,2024-07-01 17:48:13,15.0883409,0.0001298,53.2151,194.2189,85.3653,274.7487,7.0387e-05,8.32e-06,0.0,0 STARLINK-3501,1 51748U 22016AL  24183.74182581  .00000832  00000-0  70387-4 0  9992,2 51748  53.2151 194.2189 0001298  85.3653 274.7487 15.08834090130717,6917.898,95.438,540.661,538.866,0.0
51748.0,STARLINK-3501,PAYLOAD,2024-07-02 09:42:05,15.08831772,0.0001247,53.215,191.2449,83.1208,276.9926,0.00011485,1.54e-05,0.0,0 STARLINK-3501,1 51748U 22016AL  24184.40422944  .00001540  00000-0  11485-3 0  9996,2 51748  53.2150 191.2449 0001247  83.1208 276.9926 15.08831772131883,6917.906,95.438,540.633,538.908,0.0
51748.0,STARLINK-3501,PAYLOAD,2024-07-02 17:39:02,15.08813588,0.0001284,53.2146,189.7581,77.5451,282.5685,-5.6121e-05,-1.18e-05,0.0,0 STARLINK-3501,1 51748U 22016AL  24184.73545111 -.00001180  00000-0 -56121-4 0  9993,2 51748  53.2146 189.7581 0001284  77.5451 282.5685 15.08813588131931,6917.961,95.439,540.714,538.938,0.0
51748.0,STARLINK-3501,PAYLOAD,2024-07-03 04:46:45,15.08819716,0.0001307,53.2145,187.6768,77.9007,282.2131,-1.6913e-05,-5.57e-06,0.0,0 STARLINK-3501,1 51748U 22016AL  24185.19913232 -.00000557  00000-0 -16913-4 0  9999,2 51748  53.2145 187.6768 0001307  77.9007 282.2131 15.08819716132002,6917.942,95.439,540.712,538.903,0.0
51748.0,STARLINK-3501,PAYLOAD,2024-07-03 09:32:53,15.08836421,0.0001133,53.2143,186.7838,96.1592,263.9529,8.4105e-05,1.051e-05,0.0,0 STARLINK-3501,1 51748U 22016AL  24185.39783922  .00001051  00000-0  84105-4 0  9998,2 51748  53.2143 186.7838 0001133  96.1592 263.9529 15.08836421132039,6917.891,95.438,540.54,538.973,0.0
51748.0,STARLINK-3501,PAYLOAD,2024-07-03 17:29:48,15.08839914,0.0001148,53.2146,185.2965,89.2612,270.8511,8.9083e-05,1.13e-05,0.0,0 STARLINK-3501,1 51748U 22016AL  24185.72903773  .00001130  00000-0  89083-4 0  9991,2 51748  53.2146 185.2965 0001148  89.2612 270.8511 15.08839914131014,6917.881,95.438,540.54,538.951,0.0
51748.0,STARLINK-3501,PAYLOAD,2024-07-04 04:37:30,15.0884629,0.0001195,53.2151,183.213,94.2969,265.816,0.00012253,1.663e-05,0.0,0 STARLINK-3501,1 51748U 22016AL  24186.19271220  .00001663  00000-0  12253-3 0  9993,2 51748  53.2151 183.2130 0001195  94.2969 265.8160 15.08846290132150,6917.861,95.437,540.553,538.899,0.0
51748.0,STARLINK-3501,PAYLOAD,2024-07-04 09:23:39,15.08843705,0.0001365,53.2155,182.3241,77.2367,282.8778,0.0001587,2.239e-05,0.0,0 STARLINK-3501,1 51748U 22016AL  24186.39143399  .00002239  00000-0  15870-3 0  9998,2 51748  53.2155 182.3241 0001365  77.2367 282.8778 15.08843705131116,6917.869,95.437,540.678,538.79,0.0
51748.0,STARLINK-3501,PAYLOAD,2024-07-04 17:20:35,15.08840949,0.0001459,53.2156,180.8378,75.4219,284.6934,0.00027653,4.116e-05,0.0,0 STARLINK-3501,1 51748U 22016AL  24186.72263262  .00004116  00000-0  27653-3 0  9995,2 51748  53.2156 180.8378 0001459  75.4219 284.6934 15.08840949131167,6917.877,95.437,540.752,538.733,0.0
51748.0,STARLINK-3501,PAYLOAD,2024-07-05 04:28:12,15.08979992,0.0002099,53.2157,178.7544,60.9647,299.1555,-0.0016476,-0.00026515,0.0,0 STARLINK-3501,1 51748U 22016AL  24187.18625710 -.00026515  00000-0 -16476-2 0  9995,2 51748  53.2157 178.7544 0002099  60.9647 299.1555 15.08979992132302,6917.453,95.429,540.769,537.866,0.0
51748.0,STARLINK-3501,PAYLOAD,2024-07-05 12:25:11,15.08865214,0.0001357,53.2156,177.2692,82.0169,278.0977,0.00022134,3.239e-05,0.0,0 STARLINK-3501,1 51748U 22016AL  24187.51749701  .00003239  00000-0  22134-3 0  9994,2 51748  53.2156 177.2692 0001357  82.0169 278.0977 15.08865214132359,6917.803,95.436,540.607,538.73,0.0
51748.0,STARLINK-3501,PAYLOAD,2024-07-06 05:54:28,15.08825839,0.0001497,53.2151,173.9969,86.1074,274.0089,-0.00030224,-5.093e-05,0.0,0 STARLINK-3501,1 51748U 22016AL  24188.24616265 -.00005093  00000-0 -30224-3 0  9994,2 51748  53.2151 173.9969 0001497  86.1074 274.0089 15.08825839132460,6917.924,95.438,540.824,538.753,0.0
51748.0,STARLINK-3501,PAYLOAD,2024-07-06 09:05:14,15.08824196,0.0001515,53.2151,173.4027,85.6914,274.4251,-0.00031405,-5.28e-05,0.0,0 STARLINK-3501,1 51748U 22016AL  24188.37864453 -.00005280  00000-0 -31405-3 0  9992,2 51748  53.2151 173.4027 0001515  85.6914 274.4251 15.08824196131412,6917.929,95.439,540.842,538.746,0.0
51748.0,STARLINK-3501,PAYLOAD,2024-07-07 04:09:52,15.08832964,0.0001498,53.2158,169.8346,88.2714,271.845,-0.00011346,-2.093e-05,0.0,0 STARLINK-3501,1 51748U 22016AL  24189.17352429 -.00002093  00000-0 -11346-3 0  9997,2 51748  53.2158 169.8346 0001498  88.2714 271.8450 15.08832964132605,6917.902,95.438,540.803,538.731,0.0
51748.0,STARLINK-3501,PAYLOAD,2024-07-08 05:36:02,15.088512,0.0001576,53.2154,165.078,89.4608,270.6564,0.00058062,8.967e-05,0.0,0 STARLINK-3501,1 51748U 22016AL  24190.23336520  .00008967  00000-0  58062-3 0  9990,2 51748  53.2154 165.0780 0001576  89.4608 270.6564 15.08851200132767,6917.846,95.437,540.801,538.621,0.0
51748.0,STARLINK-3501,PAYLOAD,2024-07-08 07:11:25,15.08857346,0.0001617,53.2156,164.7803,90.202,269.9158,0.00066303,0.00010285,0.0,0 STARLINK-3501,1 51748U 22016AL  24190.29960370  .00010285  00000-0  66303-3 0  9995,2 51748  53.2156 164.7803 0001617  90.2020 269.9158 15.08857346131705,6917.827,95.436,540.811,538.574,0.0
51748.0,STARLINK-3501,PAYLOAD,2024-07-08 15:08:21,15.08859588,0.0001621,53.2157,163.2937,91.6297,268.4881,0.00051859,7.979e-05,0.0,0 STARLINK-3501,1 51748U 22016AL  24190.63080043  .00007979  00000-0  51859-3 0  9999,2 51748  53.2157 163.2937 0001621  91.6297 268.4881 15.08859588131756,6917.821,95.436,540.807,538.564,0.0
